BY70-2                  
1 45857U 20042B   24179.18799571  .00177736  00000+0  52007-2 0  9993
2 45857  97.9060 273.4111 0011468 205.0201 155.0486 15.34461967216083
SALSAT                  
1 46495U 20068K   24178.79602502  .00007070  00000+0  40038-3 0  9998
2 46495  97.8166 138.3299 0011805 282.2382  77.7526 15.13297558205764
UVSQ-SAT                
1 47438U 21006AB  24178.85922190  .00060706  00000+0  11088-2 0  9991
2 47438  97.3241 239.4825 0008008 169.5219 190.6201 15.49168238190237
LEDSAT                  
1 49069U 21073D   24179.15993282  .00018650  00000+0  74269-3 0  9993
2 49069  97.4367 250.2262 0018104 245.0039 114.9319 15.25137168157978
XW-3 (CAS-9)            
1 50466U 21131B   24179.20336835  .00000933  00000+0  31231-3 0  9999
2 50466  98.5286 264.2258 0005432  97.7044 262.4761 14.39681967131440
TEVEL-3                 
1 50988U 22002E   24179.19602953  .00243821  00000+0  17961-2 0  9999
2 50988  97.3733 255.6196 0004986 238.3526 121.7251 15.72308862136623
TEVEL-8                 
1 50989U 22002F   24179.17601879  .00243579  00000+0  18157-2 0  9992
2 50989  97.3753 255.6904 0004860 238.5814 121.4975 15.72028033136614
TEVEL-5                 
1 50998U 22002Q   24178.73990109  .00407098  00000+0  18882-2 0  9993
2 50998  97.3702 256.7656 0007706 240.3250 119.7252 15.82352334136669
TEVEL-6                 
1 50999U 22002R   24179.19683015  .00400367  00000+0  18757-2 0  9993
2 50999  97.3695 257.1971 0007772 241.6460 118.4025 15.82151225136734
TEVEL-1                 
1 51013U 22002AF  24179.16646011  .00233382  00000+0  17488-2 0  9994
2 51013  97.3726 255.4316 0005275 237.4180 122.6574 15.71930575136613
TEVEL-7                 
1 51062U 22002CG  24179.15940999  .00240981  00000+0  17741-2 0  9994
2 51062  97.3744 255.6531 0005364 237.4310 122.6435 15.72329334136614
TEVEL-4                 
1 51063U 22002CH  24179.14795354  .00230681  00000+0  17645-2 0  9996
2 51063  97.3751 255.5084 0005217 238.1187 121.9568 15.71446737136606
TEVEL-2                 
1 51069U 22002CP  24179.19291888  .00242099  00000+0  17809-2 0  9998
2 51069  97.3727 255.5846 0005105 237.3048 122.7724 15.72346642136624
GREENCUBE               
1 53106U 22080B   24174.10442972 -.00000003  00000+0  00000+0 0  9996
2 53106  70.1321 190.8128 0007590 106.1483 254.0012  6.42557669 45580
KAI-1 (RS26S)           
1 53378U 22096J   24179.06071448  .00160270  00000+0  11192-2 0  9999
2 53378  97.3935  98.5897 0005386 122.9077 237.2706 15.73806258105783
SIREN (RS30S)           
1 53384U 22096Q   24179.07155792  .00786177  30132-3  13483-2 0  9990
2 53384  97.3758 101.5064 0009949 144.8428 215.3510 16.02425569105983
CAS-5A (FO-118)         
1 54684U 22167C   24179.20369239  .00032058  00000+0  10767-2 0  9992
2 54684  97.6068 324.2721 0010749 114.0499 246.1867 15.30733862 85831
STRATOSAT-TK 1 (RS52S)  
1 57167U 23091B   24179.20969509  .00017536  00000+0  10004-2 0  9992
2 57167  97.6104 232.2539 0016693  88.5478 271.7664 15.12703235 55075
UMKA 1 (RS40S)          
1 57172U 23091G   24179.15480414  .00007619  00000+0  50142-3 0  9994
2 57172  97.6107 231.0996 0018251  89.2599 271.0720 15.07697695 54994
CUBESX-HSE 3 (RS42S)    
1 57178U 23091N   24179.16773691  .00010599  00000+0  66939-3 0  9995
2 57178  97.6138 231.5633 0018525  84.0632 276.2707 15.09107526 55019
MONITOR-4 (RS57S)       
1 57182U 23091S   24179.09211588  .00009205  00000+0  58958-3 0  9998
2 57182  97.6130 231.3009 0018938  85.2860 275.0531 15.08623717 54997
MONITOR-2 (RS39S)       
1 57184U 23091U   24179.18430838  .00005303  00000+0  34986-3 0  9991
2 57184  97.6132 231.5108 0015625  79.5307 280.7681 15.07784390 55012
SVYATOBOR 1 (RS60S)     
1 57187U 23091X   24179.19658802  .00008146  00000+0  51273-3 0  9994
2 57187  97.6137 231.9613 0015111  77.6194 282.6725 15.09357959 55040
VIZARD-METEO (RS38S)    
1 57189U 23091Z   24179.14293143  .00010203  00000+0  61679-3 0  9992
2 57189  97.6133 232.3040 0013938  76.0475 284.2304 15.10777616 55068
NANOZOND 1 (RS49S)      
1 57190U 23091AA  24179.19404211  .00014920  00000+0  83744-3 0  9996
2 57190  97.6103 232.8819 0012179  81.0395 279.2214 15.13378569 55116
POLYTECH-UNIVERSE 3 (R*)
1 57191U 23091AB  24179.18929534  .00005751  00000+0  37880-3 0  9998
2 57191  97.6101 231.1955 0021240  94.5865 265.7789 15.07725273 55004
UTMN 2 (RS27S)          
1 57203U 23091AP  24179.13706409  .00009096  00000+0  55791-3 0  9998
2 57203  97.6130 232.1555 0014355  76.1773 284.1052 15.10276948 55057
ARCCUBE 1 (RS25S)       
1 57205U 23091AR  24179.16429575  .00019195  00000+0  10419-2 0  9997
2 57205  97.6074 232.9721 0012154  82.1887 278.0724 15.14520343 55128
KUZGTU 1 (RS47S)        
1 57217U 23091AV  24179.17728487  .00009689  00000+0  61476-3 0  9992
2 57217  97.6111 231.4335 0018523  85.2931 275.0413 15.08960806 55013
HADES-D (SO-121)        
1 58567U 23174CY  24179.19273396  .00058656  00000+0  19589-2 0  9994
2 58567  97.4523 254.9581 0013574 188.2936 171.8083 15.30734575 35314
NOAA 15                 
1 25338U 98030A   24179.12585831  .00000366  00000+0  16934-3 0  9997
2 25338  98.5677 206.0449 0009165 298.9525  61.0736 14.26612320358850
NOAA 18                 
1 28654U 05018A   24179.19074964  .00000329  00000+0  19902-3 0  9999
2 28654  98.8744 256.0727 0014745  39.1477 321.0759 14.13239305984670
NOAA 19                 
1 33591U 09005A   24179.14353707  .00000299  00000+0  18488-3 0  9999
2 33591  99.0465 235.0478 0012766 263.3406  96.6313 14.13034398793037
METOP-B                 
1 38771U 12049A   24179.16844570  .00000229  00000+0  12437-3 0  9992
2 38771  98.6273 236.1677 0001514  88.6508 271.4842 14.21443462610962
SARAL                   
1 39086U 13009A   24178.92928426  .00000163  00000+0  76213-4 0  9995
2 39086  98.5511   3.9088 0000798 236.0344 124.0764 14.32433745592478
METOP-C                 
1 43689U 18087A   24179.13652835  .00000189  00000+0  10657-3 0  9999
2 43689  98.7229 238.2968 0003018  74.3098 285.8412 14.21479580292532
ANGELS                  
1 44876U 19092D   24179.10625131  .00007705  00000+0  29119-3 0  9995
2 44876  97.4747   7.6800 0008238 286.9802  73.0534 15.27239080250877
OTB-3-GAZELLE           
1 54023U 22127A   24178.97272183  .00000277  00000+0  97140-4 0  9999
2 54023  98.3426 173.0576 0012846 196.7172 163.3596 14.42119529 90539
EOS-6 (OCEANSAT-3)      
1 54361U 22158A   24179.18231860  .00000622  00000+0  18284-3 0  9994
2 54361  98.3534 276.0763 0001460 114.0750 246.0595 14.47012696 83713
BEIDOU-2 IGSO-1 (C06)   
1 36828U 10036A   24178.90882588 -.00000073  00000+0  00000+0 0  9996
2 36828  54.2559 169.4751 0042157 207.1672 333.8623  1.00279287 51006
BEIDOU-2 G4 (C04)       
1 37210U 10057A   24178.86004196 -.00000109  00000+0  00000+0 0  9991
2 37210   1.8676  68.9582 0003598 155.5385 160.6217  1.00270064 50062
BEIDOU-2 IGSO-2 (C07)   
1 37256U 10068A   24177.03205666 -.00000185  00000+0  00000+0 0  9990
2 37256  48.8639 280.7291 0036230 210.2706 258.3565  1.00247372 49557
BEIDOU-2 IGSO-3 (C08)   
1 37384U 11013A   24178.40626894 -.00000181  00000+0  00000+0 0  9991
2 37384  61.3631  47.0209 0026914 173.9284 306.3809  1.00255981 48434
BEIDOU-2 IGSO-4 (C09)   
1 37763U 11038A   24176.79176495  .00000052  00000+0  00000+0 0  9992
2 37763  54.5608 172.1059 0126041 229.0190 251.3613  1.00257464 47403
BEIDOU-2 IGSO-5 (C10)   
1 37948U 11073A   24177.76139309 -.00000162  00000+0  00000+0 0  9990
2 37948  48.9949 280.4070 0101164 220.2369 141.8045  1.00291582 45903
BEIDOU-2 G5 (C05)       
1 38091U 12008A   24178.89943418  .00000060  00000+0  00000+0 0  9994
2 38091   2.0989  70.9720 0004986 270.0704 316.9073  1.00273012 45142
BEIDOU-2 M3 (C11)       
1 38250U 12018A   24178.59797914 -.00000069  00000+0  00000+0 0  9997
2 38250  56.3326 329.0291 0021163 261.7152  98.0407  1.86231128 82525
BEIDOU-2 M4 (C12)       
1 38251U 12018B   24178.52814162 -.00000068  00000+0  00000+0 0  9995
2 38251  56.2396 328.3023 0012034 262.6176  97.2414  1.86231848 82528
BEIDOU-2 M6 (C14)       
1 38775U 12050B   24178.77464856 -.00000019  00000+0  00000+0 0  9996
2 38775  55.9197  86.8425 0013674 341.1557  18.8199  1.86231064 80249
BEIDOU-2 G6 (C02)       
1 38953U 12059A   24178.88105097 -.00000173  00000+0  00000+0 0  9995
2 38953   2.5839  80.4583 0009400 319.4466 276.8214  1.00270117 42680
BEIDOU-3S IGSO-1S (C31) 
1 40549U 15019A   24172.84510329 -.00000157  00000+0  00000+0 0  9998
2 40549  50.5681 304.1498 0038536 192.5606 166.9884  1.00250064 33783
BEIDOU-3S M2S (C58)     
1 40748U 15037A   24176.04353949 -.00000065  00000+0  00000+0 0  9996
2 40748  55.4730 326.8017 0008728 246.3444 113.5559  1.86233125 60655
BEIDOU-3S M1S (C57)     
1 40749U 15037B   24177.92479460 -.00000067  00000+0  00000+0 0  9994
2 40749  55.4745 326.7251 0002981 356.5965   3.3967  1.86232828 60690
BEIDOU-3S IGSO-2S (C56) 
1 40938U 15053A   24178.71924488 -.00000130  00000+0  00000+0 0  9996
2 40938  50.3412 267.2958 0053074 190.5292 171.4335  1.00259905 32120
BEIDOU-2 IGSO-6 (C13)   
1 41434U 16021A   24177.40432630 -.00000156  00000+0  00000+0 0  9990
2 41434  59.1879  45.2636 0047814 222.1604 247.7994  1.00269127 30243
BEIDOU-2 G7 (C03)       
1 41586U 16037A   24179.04493890 -.00000350  00000+0  00000+0 0  9998
2 41586   1.9301  69.7946 0009026   7.1599 325.4010  1.00269058 29567
BEIDOU-3 M1 (C19)       
1 43001U 17069A   24176.39284814 -.00000013  00000+0  00000+0 0  9993
2 43001  56.0681  87.0200 0010436 309.2817  50.6471  1.86231341 45143
BEIDOU-3 M2 (C20)       
1 43002U 17069B   24176.33011160 -.00000013  00000+0  00000+0 0  9990
2 43002  56.0675  87.0577 0008807 333.6447  26.3315  1.86230931 45133
BEIDOU-3 M7 (C27)       
1 43107U 18003A   24176.07911960 -.00000066  00000+0  00000+0 0  9991
2 43107  54.9311 327.3883 0004645  79.0854 280.9594  1.86232435 43880
